{
  "norad_id": 45677,
  "name": "STARLINK-1392",
  "history": [
    {
      "epoch": "2026-03-28T20:52:47.130816Z",
      "apogee_km": 478.7012865723864,
      "perigee_km": 476.7775276525517,
      "latitude_deg": 9.13595661819116e-06,
      "longitude_deg": -163.70190872104754,
      "height_km": 478.68506107123585,
      "semi_major_axis_km": 6855.876407112469,
      "eccentricity": 0.0001403,
      "inclination_deg": 53.1565,
      "raan_deg": 335.7787,
      "arg_perigee_deg": 92.8883,
      "mean_anomaly_deg": 267.2278,
      "mean_motion_rev_day": 15.29354947
    },
    {
      "epoch": "2026-03-29T01:35:06.288864Z",
      "apogee_km": 478.71939812973324,
      "perigee_km": 476.7682144522623,
      "latitude_deg": 5.597462276342643e-05,
      "longitude_deg": 124.61526026883297,
      "height_km": 478.7534761054308,
      "semi_major_axis_km": 6855.8808062909975,
      "eccentricity": 0.0001423,
      "inclination_deg": 53.1561,
      "raan_deg": 334.8689,
      "arg_perigee_deg": 96.6249,
      "mean_anomaly_deg": 263.4914,
      "mean_motion_rev_day": 15.29353475
    },
    {
      "epoch": "2026-03-30T01:06:41.363712Z",
      "apogee_km": 478.7676414599173,
      "perigee_km": 476.77120150998053,
      "latitude_deg": -1.565047176307077e-06,
      "longitude_deg": 126.20647740793919,
      "height_km": 478.70387040649354,
      "semi_major_axis_km": 6855.906421484949,
      "eccentricity": 0.0001456,
      "inclination_deg": 53.155,
      "raan_deg": 330.3225,
      "arg_perigee_deg": 92.153,
      "mean_anomaly_deg": 267.9637,
      "mean_motion_rev_day": 15.29344904
    },
    {
      "epoch": "2026-03-30T01:06:41.364576Z",
      "apogee_km": 478.767915696174,
      "perigee_km": 476.7709272737238,
      "latitude_deg": 7.52651053547985e-05,
      "longitude_deg": 126.20653105027718,
      "height_km": 478.70386852261134,
      "semi_major_axis_km": 6855.906421484949,
      "eccentricity": 0.00014564,
      "inclination_deg": 53.155,
      "raan_deg": 330.3225,
      "arg_perigee_deg": 92.153,
      "mean_anomaly_deg": 267.9638,
      "mean_motion_rev_day": 15.29344904
    },
    {
      "epoch": "2026-03-30T08:57:12.809088Z",
      "apogee_km": 478.7626247031876,
      "perigee_km": 476.7501457588878,
      "latitude_deg": 5.303544677088051e-05,
      "longitude_deg": 6.737433777372312,
      "height_km": 478.69431184355426,
      "semi_major_axis_km": 6855.893385231037,
      "eccentricity": 0.00014677,
      "inclination_deg": 53.155,
      "raan_deg": 328.8065,
      "arg_perigee_deg": 92.3353,
      "mean_anomaly_deg": 267.7816,
      "mean_motion_rev_day": 15.29349266
    }
  ]
}